start=new Date('2023-04-17T00:00:00.000Z').valueOf();
sats=[{"TLE_LINE2":"2 47979  53.0543 340.3262 0000882 122.5276 237.5799 15.06375038116032","TLE_LINE1":"1 47979U 21024C   23106.87863019  .00016634  00000-0  11337-2 0  9996","SEMIMAJOR_AXIS":"6925.425","BSTAR":"0.00113370000000","GP_ID":"230197652","EPHEMERIS_TYPE":"0","ARG_OF_PERICENTER":"122.5276","TIME_SYSTEM":"UTC","OBJECT_ID":"2021-024C","ECCENTRICITY":"0.00008820","PERIOD":"95.594","MEAN_ANOMALY":"237.5799","EPOCH":"2023-04-16T21:05:13.648416","OBJECT_TYPE":"PAYLOAD","PERIAPSIS":"546.679","ELEMENT_SET_NO":"999","RCS_SIZE":"LARGE","CENTER_NAME":"EARTH","FILE":"3888799","MEAN_MOTION_DDOT":"0.0000000000000","INCLINATION":"53.0543","DECAY_DATE":null,"OBJECT_NAME":"STARLINK-2325","COUNTRY_CODE":"US","MEAN_ELEMENT_THEORY":"SGP4","REV_AT_EPOCH":"11603","NORAD_CAT_ID":"47979","REF_FRAME":"TEME","RA_OF_ASC_NODE":"340.3262","CLASSIFICATION_TYPE":"U","LAUNCH_DATE":"2021-03-24","MEAN_MOTION_DOT":"0.00016634","APOAPSIS":"547.901","SITE":"AFETR","MEAN_MOTION":"15.06375038"},{"OBJECT_ID":"2021-024D","MEAN_ANOMALY":"265.5560","PERIOD":"95.594","EPOCH":"2023-04-16T21:34:26.128128","ECCENTRICITY":"0.00005210","EPHEMERIS_TYPE":"0","TIME_SYSTEM":"UTC","ARG_OF_PERICENTER":"94.5488","INCLINATION":"53.0538","MEAN_MOTION_DDOT":"0.0000000000000","OBJECT_TYPE":"PAYLOAD","PERIAPSIS":"546.922","CENTER_NAME":"EARTH","FILE":"3888799","ELEMENT_SET_NO":"999","RCS_SIZE":"LARGE","TLE_LINE2":"2 47980  53.0538 320.3507 0000521  94.5488 265.5560 15.06377293116314","TLE_LINE1":"1 47980U 21024D   23106.89891352  .00021505  00000-0  14591-2 0  9999","GP_ID":"230197363","SEMIMAJOR_AXIS":"6925.418","BSTAR":"0.00145910000000","MEAN_MOTION_DOT":"0.00021505","CLASSIFICATION_TYPE":"U","LAUNCH_DATE":"2021-03-24","MEAN_MOTION":"15.06377293","APOAPSIS":"547.644","SITE":"AFETR","OBJECT_NAME":"STARLINK-2312","COUNTRY_CODE":"US","DECAY_DATE":null,"REF_FRAME":"TEME","RA_OF_ASC_NODE":"320.3507","MEAN_ELEMENT_THEORY":"SGP4","REV_AT_EPOCH":"11631","NORAD_CAT_ID":"47980"},{"TLE_LINE2":"2 47981  53.0566  45.3855 0000449  38.3143 321.7877 15.06403158115123","TLE_LINE1":"1 47981U 21024E   23106.86339660  .00023261  00000-0  15752-2 0  9997","GP_ID":"230196651","SEMIMAJOR_AXIS":"6925.339","BSTAR":"0.00157520000000","OBJECT_ID":"2021-024E","PERIOD":"95.592","ECCENTRICITY":"0.00004490","MEAN_ANOMALY":"321.7877","EPOCH":"2023-04-16T20:43:17.466240","EPHEMERIS_TYPE":"0","TIME_SYSTEM":"UTC","ARG_OF_PERICENTER":"38.3143","INCLINATION":"53.0566","MEAN_MOTION_DDOT":"0.0000000000000","OBJECT_TYPE":"PAYLOAD","PERIAPSIS":"546.893","FILE":"3888799","CENTER_NAME":"EARTH","RCS_SIZE":"LARGE","ELEMENT_SET_NO":"999","OBJECT_NAME":"STARLINK-2303","COUNTRY_CODE":"US","DECAY_DATE":null,"REF_FRAME":"TEME","RA_OF_ASC_NODE":"45.3855","MEAN_ELEMENT_THEORY":"SGP4","REV_AT_EPOCH":"11512","NORAD_CAT_ID":"47981","MEAN_MOTION_DOT":"0.00023261","CLASSIFICATION_TYPE":"U","LAUNCH_DATE":"2021-03-24","MEAN_MOTION":"15.06403158","APOAPSIS":"547.515","SITE":"AFETR"},{"OBJECT_ID":"2021-024F","MEAN_ANOMALY":"297.2020","PERIOD":"95.592","ECCENTRICITY":"0.00012680","EPOCH":"2023-04-16T20:15:28.562976","EPHEMERIS_TYPE":"0","ARG_OF_PERICENTER":"62.9098","TIME_SYSTEM":"UTC","MEAN_MOTION_DDOT":"0.0000000000000","INCLINATION":"53.0544","OBJECT_TYPE":"PAYLOAD","PERIAPSIS":"546.339","ELEMENT_SET_NO":"999","RCS_SIZE":"LARGE","CENTER_NAME":"EARTH","FILE":"3888799","TLE_LINE2":"2 47982  53.0544 335.4700 0001268  62.9098 297.2020 15.06398794116042","TLE_LINE1":"1 47982U 21024F   23106.84408059  .00022895  00000-0  15510-2 0  9999","GP_ID":"230196898","SEMIMAJOR_AXIS":"6925.352","BSTAR":"0.00155100000000","MEAN_MOTION_DOT":"0.00022895","CLASSIFICATION_TYPE":"U","LAUNCH_DATE":"2021-03-24","MEAN_MOTION":"15.06398794","APOAPSIS":"548.095","SITE":"AFETR","OBJECT_NAME":"STARLINK-2317","COUNTRY_CODE":"US","DECAY_DATE":null,"REF_FRAME":"TEME","RA_OF_ASC_NODE":"335.4700","MEAN_ELEMENT_THEORY":"SGP4","NORAD_CAT_ID":"47982","REV_AT_EPOCH":"11604"},{"MEAN_MOTION":"15.06405141","SITE":"AFETR","APOAPSIS":"547.789","MEAN_MOTION_DOT":"0.00034694","LAUNCH_DATE":"2021-03-24","CLASSIFICATION_TYPE":"U","RA_OF_ASC_NODE":"340.3129","REF_FRAME":"TEME","NORAD_CAT_ID":"47985","REV_AT_EPOCH":"11597","MEAN_ELEMENT_THEORY":"SGP4","OBJECT_NAME":"STARLINK-2308","COUNTRY_CODE":"US","DECAY_DATE":null,"INCLINATION":"53.0546","MEAN_MOTION_DDOT":"0.0000000000000","ELEMENT_SET_NO":"999","RCS_SIZE":"LARGE","FILE":"3888799","CENTER_NAME":"EARTH","OBJECT_TYPE":"PAYLOAD","PERIAPSIS":"546.606","PERIOD":"95.592","MEAN_ANOMALY":"263.6041","EPOCH":"2023-04-16T21:58:21.020448","ECCENTRICITY":"0.00008540","OBJECT_ID":"2021-024J","TIME_SYSTEM":"UTC","ARG_OF_PERICENTER":"96.5045","EPHEMERIS_TYPE":"0","GP_ID":"230197152","BSTAR":"0.00233630000000","SEMIMAJOR_AXIS":"6925.333","TLE_LINE1":"1 47985U 21024J   23106.91552107  .00034694  00000-0  23363-2 0  9999","TLE_LINE2":"2 47985  53.0546 340.3129 0000854  96.5045 263.6041 15.06405141115978"},{"DECAY_DATE":null,"OBJECT_NAME":"STARLINK-2305","COUNTRY_CODE":"US","MEAN_ELEMENT_THEORY":"SGP4","NORAD_CAT_ID":"47989","REV_AT_EPOCH":"11633","REF_FRAME":"TEME","RA_OF_ASC_NODE":"315.2246","CLASSIFICATION_TYPE":"U","LAUNCH_DATE":"2021-03-24","MEAN_MOTION_DOT":"0.00005501","APOAPSIS":"548.054","SITE":"AFETR","MEAN_MOTION":"15.06393520","TLE_LINE2":"2 47989  53.0552 315.2246 0001185  66.0212 294.0901 15.06393520116337","TLE_LINE1":"1 47989U 21024N   23106.90121055  .00005501  00000-0  38795-3 0  9997","SEMIMAJOR_AXIS":"6925.368","BSTAR":"0.00038795000000","GP_ID":"230197864","EPHEMERIS_TYPE":"0","ARG_OF_PERICENTER":"66.0212","TIME_SYSTEM":"UTC","OBJECT_ID":"2021-024N","EPOCH":"2023-04-16T21:37:44.591520","PERIOD":"95.593","MEAN_ANOMALY":"294.0901","ECCENTRICITY":"0.00011850","PERIAPSIS":"546.413","OBJECT_TYPE":"PAYLOAD","RCS_SIZE":"LARGE","ELEMENT_SET_NO":"999","CENTER_NAME":"EARTH","FILE":"3888799","MEAN_MOTION_DDOT":"0.0000000000000","INCLINATION":"53.0552"},{"DECAY_DATE":null,"OBJECT_NAME":"STARLINK-2307","COUNTRY_CODE":"US","NORAD_CAT_ID":"47990","REV_AT_EPOCH":"11631","MEAN_ELEMENT_THEORY":"SGP4","RA_OF_ASC_NODE":"315.4322","REF_FRAME":"TEME","LAUNCH_DATE":"2021-03-24","CLASSIFICATION_TYPE":"U","MEAN_MOTION_DOT":"0.00010970","SITE":"AFETR","APOAPSIS":"548.269","MEAN_MOTION":"15.06337275","TLE_LINE1":"1 47990U 21024P   23106.85324896  .00010970  00000-0  75548-3 0  9994","TLE_LINE2":"2 47990  53.0535 315.4322 0001247  43.2789 316.8298 15.06337275116317","BSTAR":"0.00075548000000","SEMIMAJOR_AXIS":"6925.541","GP_ID":"230196151","ARG_OF_PERICENTER":"43.2789","TIME_SYSTEM":"UTC","EPHEMERIS_TYPE":"0","PERIOD":"95.596","MEAN_ANOMALY":"316.8298","ECCENTRICITY":"0.00012470","EPOCH":"2023-04-16T20:28:40.710144","OBJECT_ID":"2021-024P","ELEMENT_SET_NO":"999","RCS_SIZE":"LARGE","CENTER_NAME":"EARTH","FILE":"3888799","PERIAPSIS":"546.542","OBJECT_TYPE":"PAYLOAD","INCLINATION":"53.0535","MEAN_MOTION_DDOT":"0.0000000000000"},{"BSTAR":"0.00147560000000","SEMIMAJOR_AXIS":"6925.401","GP_ID":"230196398","TLE_LINE1":"1 47991U 21024Q   23106.86481123  .00021756  00000-0  14756-2 0  9990","TLE_LINE2":"2 47991  53.0539 330.3873 0000916  55.4966 304.6109 15.06382975116169","RCS_SIZE":"LARGE","ELEMENT_SET_NO":"999","CENTER_NAME":"EARTH","FILE":"3888799","OBJECT_TYPE":"PAYLOAD","PERIAPSIS":"546.631","INCLINATION":"53.0539","MEAN_MOTION_DDOT":"0.0000000000000","TIME_SYSTEM":"UTC","ARG_OF_PERICENTER":"55.4966","EPHEMERIS_TYPE":"0","PERIOD":"95.593","MEAN_ANOMALY":"304.6109","ECCENTRICITY":"0.00009160","EPOCH":"2023-04-16T20:45:19.690272","OBJECT_ID":"2021-024Q","NORAD_CAT_ID":"47991","REV_AT_EPOCH":"11616","MEAN_ELEMENT_THEORY":"SGP4","RA_OF_ASC_NODE":"330.3873","REF_FRAME":"TEME","DECAY_DATE":null,"OBJECT_NAME":"STARLINK-2279","COUNTRY_CODE":"US","SITE":"AFETR","APOAPSIS":"547.900","MEAN_MOTION":"15.06382975","LAUNCH_DATE":"2021-03-24","CLASSIFICATION_TYPE":"U","MEAN_MOTION_DOT":"0.00021756"},{"COUNTRY_CODE":"US","OBJECT_NAME":"STARLINK-2229","DECAY_DATE":null,"RA_OF_ASC_NODE":"325.3703","REF_FRAME":"TEME","REV_AT_EPOCH":"11619","NORAD_CAT_ID":"47992","MEAN_ELEMENT_THEORY":"SGP4","MEAN_MOTION_DOT":"0.00022481","LAUNCH_DATE":"2021-03-24","CLASSIFICATION_TYPE":"U","MEAN_MOTION":"15.06395861","SITE":"AFETR","APOAPSIS":"548.021","TLE_LINE1":"1 47992U 21024R   23106.88554983  .00022481  00000-0  15235-2 0  9997","TLE_LINE2":"2 47992  53.0545 325.3703 0001148 126.8605 233.2489 15.06395861116193","GP_ID":"230197653","BSTAR":"0.00152350000000","SEMIMAJOR_AXIS":"6925.361","MEAN_ANOMALY":"233.2489","PERIOD":"95.592","ECCENTRICITY":"0.00011480","EPOCH":"2023-04-16T21:15:11.505312","OBJECT_ID":"2021-024R","ARG_OF_PERICENTER":"126.8605","TIME_SYSTEM":"UTC","EPHEMERIS_TYPE":"0","INCLINATION":"53.0545","MEAN_MOTION_DDOT":"0.0000000000000","RCS_SIZE":"LARGE","ELEMENT_SET_NO":"999","CENTER_NAME":"EARTH","FILE":"3888799","PERIAPSIS":"546.431","OBJECT_TYPE":"PAYLOAD"},{"APOAPSIS":"548.047","SITE":"AFETR","MEAN_MOTION":"15.06383312","CLASSIFICATION_TYPE":"U","LAUNCH_DATE":"2021-03-24","MEAN_MOTION_DOT":"0.00008584","MEAN_ELEMENT_THEORY":"SGP4","NORAD_CAT_ID":"47993","REV_AT_EPOCH":"11568","REF_FRAME":"TEME","RA_OF_ASC_NODE":"5.2476","DECAY_DATE":null,"OBJECT_NAME":"STARLINK-2273","COUNTRY_CODE":"US","PERIAPSIS":"546.483","OBJECT_TYPE":"PAYLOAD","FILE":"3888799","CENTER_NAME":"EARTH","ELEMENT_SET_NO":"999","RCS_SIZE":"LARGE","MEAN_MOTION_DDOT":"0.0000000000000","INCLINATION":"53.0558","EPHEMERIS_TYPE":"0","TIME_SYSTEM":"UTC","ARG_OF_PERICENTER":"139.9201","OBJECT_ID":"2021-024S","PERIOD":"95.593","EPOCH":"2023-04-16T21:25:47.564832","MEAN_ANOMALY":"220.1872","ECCENTRICITY":"0.00011290","SEMIMAJOR_AXIS":"6925.400","BSTAR":"0.00059474000000","GP_ID":"230197364","TLE_LINE2":"2 47993  53.0558   5.2476 0001129 139.9201 220.1872 15.06383312115687","TLE_LINE1":"1 47993U 21024S   23106.89291163  .00008584  00000-0  59474-3 0  9999"}];
